NORAD_CAT_ID,OBJECT_NAME,OBJECT_TYPE,EPOCH,MEAN_MOTION,ECCENTRICITY,INCLINATION,RA_OF_ASC_NODE,ARG_OF_PERICENTER,MEAN_ANOMALY,BSTAR,MEAN_MOTION_DOT,MEAN_MOTION_DDOT,TLE_LINE0,TLE_LINE1,TLE_LINE2,SEMIMAJOR_AXIS,PERIOD,APOGEE,PERIGEE,DECAYED
55414.0,STARLINK-5620,PAYLOAD,2023-04-09 12:59:15,15.69923873,0.0003145,69.9975,258.919,275.302,84.7817,4.1705e-06,2.89e-06,0.0,0 STARLINK-5620,1 55414U 23014Z   23099.54114743  .00000289  00000-0  41705-5 0  9992,2 55414  69.9975 258.9190 0003145 275.3020  84.7817 15.69923873 11798,6737.252,91.724,361.236,356.998,0.0
55414.0,STARLINK-5620,PAYLOAD,2023-04-10 04:16:46,15.69914897,0.0003394,69.9986,257.1265,272.7695,87.3112,1.1001e-05,1.11e-05,0.0,0 STARLINK-5620,1 55414U 23014Z   23100.17831895  .00001110  00000-0  11001-4 0  9997,2 55414  69.9986 257.1265 0003394 272.7695  87.3112 15.69914897 11893,6737.277,91.725,361.429,356.856,0.0
55414.0,STARLINK-5620,PAYLOAD,2023-04-10 10:23:47,15.69922395,0.0003434,69.9973,256.4107,276.8225,83.2579,3.4919e-06,2.07e-06,0.0,0 STARLINK-5620,1 55414U 23014Z   23100.43318336  .00000207  00000-0  34919-5 0  9996,2 55414  69.9973 256.4107 0003434 276.8225  83.2579 15.69922395 11934,6737.256,91.724,361.435,356.807,0.0
55414.0,STARLINK-5620,PAYLOAD,2023-04-10 16:30:46,15.69941765,0.000267,69.998,255.6915,262.9982,97.091,2.2709e-05,2.521e-05,0.0,0 STARLINK-5620,1 55414U 23014Z   23100.68803401  .00002521  00000-0  22709-4 0  9999,2 55414  69.9980 255.6915 0002670 262.9982  97.0910 15.69941765 11975,6737.201,91.723,360.864,357.267,0.0
55414.0,STARLINK-5620,PAYLOAD,2023-04-11 03:13:03,15.69911281,0.0002801,69.9991,254.4398,276.6914,83.3963,-3.1187e-06,-5.87e-06,0.0,0 STARLINK-5620,1 55414U 23014Z   23101.13407034 -.00000587  00000-0 -31187-5 0  9995,2 55414  69.9991 254.4398 0002801 276.6914  83.3963 15.69911281 12047,6737.288,91.725,361.04,357.266,0.0
55414.0,STARLINK-5620,PAYLOAD,2023-04-11 12:23:34,15.69917074,0.0003022,70.0014,253.3655,275.5798,84.5053,1.0375e-06,-8.8e-07,0.0,0 STARLINK-5620,1 55414U 23014Z   23101.51636940 -.00000088  00000-0  10375-5 0  9998,2 55414  70.0014 253.3655 0003022 275.5798  84.5053 15.69917074 12100,6737.271,91.725,361.172,357.1,0.0
55414.0,STARLINK-5620,PAYLOAD,2023-04-11 16:58:48,15.69931158,0.0003155,70.0009,252.831,259.0744,101.0097,1.8967e-05,2.069e-05,0.0,0 STARLINK-5620,1 55414U 23014Z   23101.70751101  .00002069  00000-0  18967-4 0  9990,2 55414  70.0009 252.8310 0003155 259.0744 101.0097 15.69931158 12136,6737.231,91.724,361.222,356.97,0.0
55414.0,STARLINK-5620,PAYLOAD,2023-04-12 09:48:05,15.69921572,0.0003578,69.9974,250.8566,269.6537,90.4248,1.6582e-05,1.781e-05,0.0,0 STARLINK-5620,1 55414U 23014Z   23102.40839890  .00001781  00000-0  16582-4 0  9991,2 55414  69.9974 250.8566 0003578 269.6537  90.4248 15.69921572 12241,6737.258,91.724,361.534,356.713,0.0
55414.0,STARLINK-5620,PAYLOAD,2023-04-12 11:19:50,15.69920883,0.0003626,69.9983,250.6772,267.8116,92.2664,2.6511e-05,2.976e-05,0.0,0 STARLINK-5620,1 55414U 23014Z   23102.47211558  .00002976  00000-0  26511-4 0  9993,2 55414  69.9983 250.6772 0003626 267.8116  92.2664 15.69920883 12252,6737.26,91.724,361.568,356.682,0.0
55414.0,STARLINK-5620,PAYLOAD,2023-04-13 10:16:07,15.69918928,0.00033,69.9984,247.9896,272.5646,87.5171,1.5812e-05,1.688e-05,0.0,0 STARLINK-5620,1 55414U 23014Z   23103.42786853  .00001688  00000-0  15812-4 0  9995,2 55414  69.9984 247.9896 0003300 272.5646  87.5171 15.69918928 12403,6737.266,91.724,361.354,356.908,0.0
55414.0,STARLINK-5620,PAYLOAD,2023-04-13 16:23:07,15.69930749,0.0002912,70.0014,247.2763,256.2519,103.8353,2.9431e-05,3.328e-05,0.0,0 STARLINK-5620,1 55414U 23014Z   23103.68272904  .00003328  00000-0  29431-4 0  9995,2 55414  70.0014 247.2763 0002912 256.2519 103.8353 15.69930749 12445,6737.232,91.724,361.059,357.135,0.0
55414.0,STARLINK-5620,PAYLOAD,2023-04-14 12:15:54,15.69918783,0.0003533,69.9986,244.945,271.0051,89.074,3.136e-06,1.64e-06,0.0,0 STARLINK-5620,1 55414U 23014Z   23104.51105199  .00000164  00000-0  31360-5 0  9999,2 55414  69.9986 244.9450 0003533 271.0051  89.0740 15.69918783 12576,6737.266,91.724,361.512,356.751,0.0
55414.0,STARLINK-5620,PAYLOAD,2023-04-15 12:43:57,15.69920162,0.0003081,69.9978,242.0795,272.2063,87.878,-1.7855e-06,-4.27e-06,0.0,0 STARLINK-5620,1 55414U 23014Z   23105.53052414 -.00000427  00000-0 -17855-5 0  9990,2 55414  69.9978 242.0795 0003081 272.2063  87.8780 15.69920162 12734,6737.262,91.724,361.203,357.052,0.0
55414.0,STARLINK-5620,PAYLOAD,2023-04-15 20:22:41,15.69934876,0.0003079,69.9989,241.1848,263.2206,96.864,1.1526e-05,1.174e-05,0.0,0 STARLINK-5620,1 55414U 23014Z   23105.84909655  .00001174  00000-0  11526-4 0  9998,2 55414  69.9989 241.1848 0003079 263.2206  96.8640 15.69934876 12788,6737.22,91.724,361.16,357.011,0.0
55414.0,STARLINK-5620,PAYLOAD,2023-04-16 02:29:42,15.69923896,0.0003275,69.9988,240.466,267.51,92.572,1.2238e-05,1.259e-05,0.0,0 STARLINK-5620,1 55414U 23014Z   23106.10396805  .00001259  00000-0  12238-4 0  9990,2 55414  69.9988 240.4660 0003275 267.5100  92.5720 15.69923896 12826,6737.252,91.724,361.323,356.91,0.0
55414.0,STARLINK-5620,PAYLOAD,2023-04-16 11:40:13,15.6992119,0.0003077,69.9997,239.3919,267.4676,92.6167,1.5807e-05,1.688e-05,0.0,0 STARLINK-5620,1 55414U 23014Z   23106.48627174  .00001688  00000-0  15807-4 0  9998,2 55414  69.9997 239.3919 0003077 267.4676  92.6167 15.69921190 12884,6737.259,91.724,361.198,357.051,0.0
55414.0,STARLINK-5620,PAYLOAD,2023-04-16 17:47:14,15.69924329,0.0002961,70.0005,238.6761,266.6459,93.4398,1.7448e-05,1.886e-05,0.0,0 STARLINK-5620,1 55414U 23014Z   23106.74113796  .00001886  00000-0  17448-4 0  9990,2 55414  70.0005 238.6761 0002961 266.6459  93.4398 15.69924329 12922,6737.25,91.724,361.11,357.121,0.0
55414.0,STARLINK-5620,PAYLOAD,2023-04-17 12:08:16,15.69918825,0.0002968,70.0003,236.5258,263.9936,96.0922,2.1597e-05,2.384e-05,0.0,0 STARLINK-5620,1 55414U 23014Z   23107.50574091  .00002384  00000-0  21597-4 0  9998,2 55414  70.0003 236.5258 0002968 263.9936  96.0922 15.69918825 13045,6737.266,91.724,361.131,357.132,0.0
55414.0,STARLINK-5620,PAYLOAD,2023-04-17 18:15:16,15.69918361,0.0002465,70.0008,235.8093,268.9186,91.1727,1.5094e-05,1.602e-05,0.0,0 STARLINK-5620,1 55414U 23014Z   23107.76060847  .00001602  00000-0  15094-4 0  9992,2 55414  70.0008 235.8093 0002465 268.9186  91.1727 15.69918361 13081,6737.268,91.725,360.793,357.472,0.0
55414.0,STARLINK-5620,PAYLOAD,2023-04-18 09:32:47,15.69918108,0.0003481,69.9994,234.0173,267.5991,92.4806,1.2714e-05,1.316e-05,0.0,0 STARLINK-5620,1 55414U 23014Z   23108.39777479  .00001316  00000-0  12714-4 0  9996,2 55414  69.9994 234.0173 0003481 267.5991  92.4806 15.69918108 13182,6737.268,91.725,361.479,356.788,0.0
55414.0,STARLINK-5620,PAYLOAD,2023-04-18 20:15:02,15.6993798,0.0003509,70.0042,232.7634,258.4758,101.6044,3.5655e-05,4.079e-05,0.0,0 STARLINK-5620,1 55414U 23014Z   23108.84378090  .00004079  00000-0  35655-4 0  9990,2 55414  70.0042 232.7634 0003509 258.4758 101.6044 15.69937980 13251,6737.211,91.723,361.441,356.712,0.0
55414.0,STARLINK-5620,PAYLOAD,2023-04-19 11:31:56,15.70813334,0.0010074,70.002,230.9711,226.3018,133.7345,0.0016744,0.00214574,0.0,0 STARLINK-5620,1 55414U 23014Z   23109.48051760  .00214574  00000-0  16744-2 0  9992,2 55414  70.0020 230.9711 0010074 226.3018 133.7345 15.70813334 13350,6734.708,91.672,363.358,349.789,0.0
55414.0,STARLINK-5620,PAYLOAD,2023-04-20 06:00:00,15.67212528,0.0003516,70.001,228.8171,270.5628,107.9219,-0.0091368,-0.00884857,0.0,0 STARLINK-5620,1 55414U 23014Z   23110.25001157 -.00884857  00000-0 -91368-2 0  9998,2 55414  70.0010 228.8171 0003516 270.5628 107.9219 15.67212528 13476,6745.02,91.883,369.257,364.513,0.0
55414.0,STARLINK-5620,PAYLOAD,2023-04-20 14:00:01,15.66533572,0.0003392,70.001,227.8842,275.6173,182.5725,-0.0091164,-0.008613,0.0,0 STARLINK-5620,1 55414U 23014Z   23110.58334491 -.00861300  00000-0 -91164-2 0  9996,2 55414  70.0010 227.8842 0003392 275.6173 182.5725 15.66533572  1307,6746.969,91.923,371.122,366.545,0.0
55414.0,STARLINK-5620,PAYLOAD,2023-04-20 16:00:00,15.66375096,0.0003244,70.0011,227.651,274.8836,293.1006,-0.0091307,-0.00857477,0.0,0 STARLINK-5620,1 55414U 23014Z   23110.66667824 -.00857477  00000-0 -91307-2 0  9993,2 55414  70.0011 227.6510 0003244 274.8836 293.1006 15.66375096 13535,6747.424,91.932,371.478,367.1,0.0
55414.0,STARLINK-5620,PAYLOAD,2023-04-20 22:00:00,15.6593701,0.0003199,70.0009,226.9521,274.3606,262.7171,-0.010396,-0.00963706,0.0,0 STARLINK-5620,1 55414U 23014Z   23110.91667824 -.00963706  00000-0 -10396-1 0  9992,2 55414  70.0009 226.9521 0003199 274.3606 262.7171 15.65937010  1301,6748.682,91.958,372.706,368.388,0.0
55414.0,STARLINK-5620,PAYLOAD,2023-04-21 06:00:00,15.65268905,0.0003383,70.0012,226.0212,265.3853,349.819,-0.010139,-0.0091931,0.0,0 STARLINK-5620,1 55414U 23014Z   23111.25001157 -.00919310  00000-0 -10139-1 0  9998,2 55414  70.0012 226.0212 0003383 265.3853 349.8190 15.65268905 13628,6750.603,91.997,374.751,370.184,0.0
55414.0,STARLINK-5620,PAYLOAD,2023-04-21 14:00:01,15.64580178,0.000344,70.0014,225.0911,272.1347,60.4324,-0.0099019,-0.00877301,0.0,0 STARLINK-5620,1 55414U 23014Z   23111.58334491 -.00877301  00000-0 -99019-2 0  9992,2 55414  70.0014 225.0911 0003440 272.1347  60.4324 15.64580178  1308,6752.583,92.037,376.771,372.126,0.0
55414.0,STARLINK-5620,PAYLOAD,2023-04-21 22:00:00,15.63971735,0.0003487,70.0009,224.1617,272.9981,136.1152,-0.011083,-0.00951155,0.0,0 STARLINK-5620,1 55414U 23014Z   23111.91667824 -.00951155  00000-0 -11083-1 0  9992,2 55414  70.0009 224.1617 0003487 272.9981 136.1152 15.63971735  1300,6754.335,92.073,378.555,373.844,0.0
55414.0,STARLINK-5620,PAYLOAD,2023-04-22 14:00:01,15.62624186,0.0003324,70.0009,222.3058,271.6388,288.2641,-0.010698,-0.00877338,0.0,0 STARLINK-5620,1 55414U 23014Z   23112.58334491 -.00877338  00000-0 -10698-1 0  9998,2 55414  70.0009 222.3058 0003324 271.6388 288.2641 15.62624186  1302,6758.217,92.153,382.329,377.836,0.0
